STARLINK-33925          
1 63793U 25091U   25243.47463602  .00034451  00000+0  12553-2 0  9997
2 63793  42.9997  46.5450 0001773 265.7196  94.3453 15.27587933 19927
STARLINK-33870          
1 63794U 25091V   25242.81433518  .00024890  00000+0  90979-3 0  9993
2 63794  43.0012  50.1913 0000867 263.7425  96.3328 15.27622523 19714
STARLINK-33867          
1 63795U 25091W   25243.50288842  .00034789  00000+0  12679-2 0  9997
2 63795  43.0063  46.7675 0001741 257.8410 102.2246 15.27578029 19815
STARLINK-33918          
1 63796U 25091X   25243.50417459  .00038768  00000+0  14107-2 0  9995
2 63796  43.0048  46.7785 0001491 258.6929 101.3756 15.27585681 19860
STARLINK-33712          
1 63797U 25091Y   25243.17163171  .00034886  00000+0  12707-2 0  9999
2 63797  43.0027  52.1022 0001094 277.8022  82.2705 15.27594764 19727
STARLINK-33827          
1 63798U 25091Z   25242.77334691  .00045667  00000+0  16563-2 0  9995
2 63798  43.0038  50.7482 0000905 274.5169  85.5579 15.27629368 19702
STARLINK-33899          
1 63799U 25091AA  25243.15796447  .00044826  00000+0  16278-2 0  9999
2 63799  42.9981  48.4684 0001324 289.0236  71.0472 15.27595825 19878
STARLINK-33900          
1 63800U 25091AB  25243.48104470  .00041122  00000+0  14946-2 0  9993
2 63800  42.9973  46.5901 0000646 282.9554  77.1225 15.27602287 19924
STARLINK-33975          
1 63802U 25091AC  25242.81303286  .00036627  00000+0  13318-2 0  9993
2 63802  43.0001  50.1812 0001060 280.3241  79.7491 15.27633216 19826
STARLINK-33951          
1 63803U 25091AD  25242.75279616  .00031923  00000+0  11634-2 0  9999
2 63803  43.0030  50.5884 0000696 279.5612  80.5161 15.27611688 19753
STARLINK-33909          
1 63804U 25092A   25243.50593959  .00048185  00000+0  17494-2 0  9992
2 63804  43.0020 167.0249 0001596 272.9684  87.0985 15.27574835 19521
STARLINK-34029          
1 63805U 25092B   25243.50079106  .00035920  00000+0  13082-2 0  9998
2 63805  42.9963 166.9845 0001536  43.4503 316.6469 15.27587801 19526
STARLINK-34102          
1 63806U 25092C   25243.49950300  .00034042  00000+0  12412-2 0  9991
2 63806  43.0004 166.9775 0000686 261.7353  98.3421 15.27571173 19572
STARLINK-34109          
1 63807U 25092D   25243.06477396  .00039711  00000+0  14440-2 0  9995
2 63807  43.0002 168.8679 0001561 278.9823  81.0852 15.27599634 19467
STARLINK-34091          
1 63808U 25092E   25243.48279103  .00024891  00000+0  91040-3 0  9993
2 63808  42.9968 166.8441 0000875 253.8283 106.2473 15.27601835 19579
STARLINK-34095          
1 63809U 25092F   25243.50463413  .00012828  00000+0  47460-3 0  9990
2 63809  43.0024 167.0158 0002312 256.2807 103.7788 15.27598636 19520
