[{"OBJECT_NAME":"STARLINK-33925","OBJECT_ID":"2025-091U","EPOCH":"2025-08-31T11:23:28.552128","MEAN_MOTION":15.27587933,"ECCENTRICITY":0.00017739,"INCLINATION":42.9997,"RA_OF_ASC_NODE":46.545,"ARG_OF_PERICENTER":265.7196,"MEAN_ANOMALY":94.3453,"EPHEMERIS_TYPE":0,"CLASSIFICATION_TYPE":"U","NORAD_CAT_ID":63793,"ELEMENT_SET_NO":999,"REV_AT_EPOCH":1992,"BSTAR":0.0012552956,"MEAN_MOTION_DOT":0.00034451,"MEAN_MOTION_DDOT":0},{"OBJECT_NAME":"STARLINK-33870","OBJECT_ID":"2025-091V","EPOCH":"2025-08-30T19:32:38.559552","MEAN_MOTION":15.27622523,"ECCENTRICITY":8.675e-5,"INCLINATION":43.0012,"RA_OF_ASC_NODE":50.1913,"ARG_OF_PERICENTER":263.7425,"MEAN_ANOMALY":96.3328,"EPHEMERIS_TYPE":0,"CLASSIFICATION_TYPE":"U","NORAD_CAT_ID":63794,"ELEMENT_SET_NO":999,"REV_AT_EPOCH":1971,"BSTAR":0.00090978509,"MEAN_MOTION_DOT":0.0002489,"MEAN_MOTION_DDOT":0},{"OBJECT_NAME":"STARLINK-33867","OBJECT_ID":"2025-091W","EPOCH":"2025-08-31T12:04:09.559488","MEAN_MOTION":15.27578029,"ECCENTRICITY":0.00017414,"INCLINATION":43.0063,"RA_OF_ASC_NODE":46.7675,"ARG_OF_PERICENTER":257.841,"MEAN_ANOMALY":102.2246,"EPHEMERIS_TYPE":0,"CLASSIFICATION_TYPE":"U","NORAD_CAT_ID":63795,"ELEMENT_SET_NO":999,"REV_AT_EPOCH":1981,"BSTAR":0.0012678572,"MEAN_MOTION_DOT":0.00034789,"MEAN_MOTION_DDOT":0},{"OBJECT_NAME":"STARLINK-33918","OBJECT_ID":"2025-091X","EPOCH":"2025-08-31T12:06:00.684576","MEAN_MOTION":15.27585681,"ECCENTRICITY":0.00014915,"INCLINATION":43.0048,"RA_OF_ASC_NODE":46.7785,"ARG_OF_PERICENTER":258.6929,"MEAN_ANOMALY":101.3756,"EPHEMERIS_TYPE":0,"CLASSIFICATION_TYPE":"U","NORAD_CAT_ID":63796,"ELEMENT_SET_NO":999,"REV_AT_EPOCH":1986,"BSTAR":0.0014106869,"MEAN_MOTION_DOT":0.00038768,"MEAN_MOTION_DDOT":0},{"OBJECT_NAME":"STARLINK-33712","OBJECT_ID":"2025-091Y","EPOCH":"2025-08-31T04:07:08.979744","MEAN_MOTION":15.27594764,"ECCENTRICITY":0.00010941,"INCLINATION":43.0027,"RA_OF_ASC_NODE":52.1022,"ARG_OF_PERICENTER":277.8022,"MEAN_ANOMALY":82.2705,"EPHEMERIS_TYPE":0,"CLASSIFICATION_TYPE":"U","NORAD_CAT_ID":63797,"ELEMENT_SET_NO":999,"REV_AT_EPOCH":1972,"BSTAR":0.0012707198,"MEAN_MOTION_DOT":0.00034886,"MEAN_MOTION_DDOT":0},{"OBJECT_NAME":"STARLINK-33827","OBJECT_ID":"2025-091Z","EPOCH":"2025-08-30T18:33:37.173024","MEAN_MOTION":15.27629368,"ECCENTRICITY":9.05e-5,"INCLINATION":43.0038,"RA_OF_ASC_NODE":50.7482,"ARG_OF_PERICENTER":274.5169,"MEAN_ANOMALY":85.5579,"EPHEMERIS_TYPE":0,"CLASSIFICATION_TYPE":"U","NORAD_CAT_ID":63798,"ELEMENT_SET_NO":999,"REV_AT_EPOCH":1970,"BSTAR":0.0016562976,"MEAN_MOTION_DOT":0.00045667,"MEAN_MOTION_DDOT":0},{"OBJECT_NAME":"STARLINK-33899","OBJECT_ID":"2025-091AA","EPOCH":"2025-08-31T03:47:28.130208","MEAN_MOTION":15.27595825,"ECCENTRICITY":0.00013242,"INCLINATION":42.9981,"RA_OF_ASC_NODE":48.4684,"ARG_OF_PERICENTER":289.0236,"MEAN_ANOMALY":71.0472,"EPHEMERIS_TYPE":0,"CLASSIFICATION_TYPE":"U","NORAD_CAT_ID":63799,"ELEMENT_SET_NO":999,"REV_AT_EPOCH":1987,"BSTAR":0.0016278017,"MEAN_MOTION_DOT":0.00044826,"MEAN_MOTION_DDOT":0},{"OBJECT_NAME":"STARLINK-33900","OBJECT_ID":"2025-091AB","EPOCH":"2025-08-31T11:32:42.262080","MEAN_MOTION":15.27602287,"ECCENTRICITY":6.469e-5,"INCLINATION":42.9973,"RA_OF_ASC_NODE":46.5901,"ARG_OF_PERICENTER":282.9554,"MEAN_ANOMALY":77.1225,"EPHEMERIS_TYPE":0,"CLASSIFICATION_TYPE":"U","NORAD_CAT_ID":63800,"ELEMENT_SET_NO":999,"REV_AT_EPOCH":1992,"BSTAR":0.0014945603,"MEAN_MOTION_DOT":0.00041122,"MEAN_MOTION_DDOT":0},{"OBJECT_NAME":"STARLINK-33975","OBJECT_ID":"2025-091AC","EPOCH":"2025-08-30T19:30:46.039104","MEAN_MOTION":15.27633216,"ECCENTRICITY":0.00010601,"INCLINATION":43.0001,"RA_OF_ASC_NODE":50.1812,"ARG_OF_PERICENTER":280.3241,"MEAN_ANOMALY":79.7491,"EPHEMERIS_TYPE":0,"CLASSIFICATION_TYPE":"U","NORAD_CAT_ID":63802,"ELEMENT_SET_NO":999,"REV_AT_EPOCH":1982,"BSTAR":0.0013317749,"MEAN_MOTION_DOT":0.00036627,"MEAN_MOTION_DDOT":0},{"OBJECT_NAME":"STARLINK-33951","OBJECT_ID":"2025-091AD","EPOCH":"2025-08-30T18:04:01.588224","MEAN_MOTION":15.27611688,"ECCENTRICITY":6.964e-5,"INCLINATION":43.003,"RA_OF_ASC_NODE":50.5884,"ARG_OF_PERICENTER":279.5612,"MEAN_ANOMALY":80.5161,"EPHEMERIS_TYPE":0,"CLASSIFICATION_TYPE":"U","NORAD_CAT_ID":63803,"ELEMENT_SET_NO":999,"REV_AT_EPOCH":1975,"BSTAR":0.0011634493,"MEAN_MOTION_DOT":0.00031923,"MEAN_MOTION_DDOT":0},{"OBJECT_NAME":"STARLINK-33909","OBJECT_ID":"2025-092A","EPOCH":"2025-08-31T12:08:33.180576","MEAN_MOTION":15.27574835,"ECCENTRICITY":0.00015967,"INCLINATION":43.002,"RA_OF_ASC_NODE":167.0249,"ARG_OF_PERICENTER":272.9684,"MEAN_ANOMALY":87.0985,"EPHEMERIS_TYPE":0,"CLASSIFICATION_TYPE":"U","NORAD_CAT_ID":63804,"ELEMENT_SET_NO":999,"REV_AT_EPOCH":1952,"BSTAR":0.0017494064,"MEAN_MOTION_DOT":0.00048185,"MEAN_MOTION_DDOT":0},{"OBJECT_NAME":"STARLINK-34029","OBJECT_ID":"2025-092B","EPOCH":"2025-08-31T12:01:08.347584","MEAN_MOTION":15.27587801,"ECCENTRICITY":0.00015368,"INCLINATION":42.9963,"RA_OF_ASC_NODE":166.9845,"ARG_OF_PERICENTER":43.4503,"MEAN_ANOMALY":316.6469,"EPHEMERIS_TYPE":0,"CLASSIFICATION_TYPE":"U","NORAD_CAT_ID":63805,"ELEMENT_SET_NO":999,"REV_AT_EPOCH":1952,"BSTAR":0.0013081682,"MEAN_MOTION_DOT":0.0003592,"MEAN_MOTION_DDOT":0},{"OBJECT_NAME":"STARLINK-34102","OBJECT_ID":"2025-092C","EPOCH":"2025-08-31T11:59:17.059200","MEAN_MOTION":15.27571173,"ECCENTRICITY":6.86e-5,"INCLINATION":43.0004,"RA_OF_ASC_NODE":166.9775,"ARG_OF_PERICENTER":261.7353,"MEAN_ANOMALY":98.3421,"EPHEMERIS_TYPE":0,"CLASSIFICATION_TYPE":"U","NORAD_CAT_ID":63806,"ELEMENT_SET_NO":999,"REV_AT_EPOCH":1957,"BSTAR":0.0012412102,"MEAN_MOTION_DOT":0.00034042,"MEAN_MOTION_DDOT":0},{"OBJECT_NAME":"STARLINK-34109","OBJECT_ID":"2025-092D","EPOCH":"2025-08-31T01:33:16.470144","MEAN_MOTION":15.27599634,"ECCENTRICITY":0.00015617,"INCLINATION":43.0002,"RA_OF_ASC_NODE":168.8679,"ARG_OF_PERICENTER":278.9823,"MEAN_ANOMALY":81.0852,"EPHEMERIS_TYPE":0,"CLASSIFICATION_TYPE":"U","NORAD_CAT_ID":63807,"ELEMENT_SET_NO":999,"REV_AT_EPOCH":1946,"BSTAR":0.0014439507,"MEAN_MOTION_DOT":0.00039711,"MEAN_MOTION_DDOT":0},{"OBJECT_NAME":"STARLINK-34091","OBJECT_ID":"2025-092E","EPOCH":"2025-08-31T11:35:13.144992","MEAN_MOTION":15.27601835,"ECCENTRICITY":8.755e-5,"INCLINATION":42.9968,"RA_OF_ASC_NODE":166.8441,"ARG_OF_PERICENTER":253.8283,"MEAN_ANOMALY":106.2473,"EPHEMERIS_TYPE":0,"CLASSIFICATION_TYPE":"U","NORAD_CAT_ID":63808,"ELEMENT_SET_NO":999,"REV_AT_EPOCH":1957,"BSTAR":0.00091039681,"MEAN_MOTION_DOT":0.00024891,"MEAN_MOTION_DDOT":0},{"OBJECT_NAME":"STARLINK-34095","OBJECT_ID":"2025-092F","EPOCH":"2025-08-31T12:06:40.388832","MEAN_MOTION":15.27598636,"ECCENTRICITY":0.00023123,"INCLINATION":43.0024,"RA_OF_ASC_NODE":167.0158,"ARG_OF_PERICENTER":256.2807,"MEAN_ANOMALY":103.7788,"EPHEMERIS_TYPE":0,"CLASSIFICATION_TYPE":"U","NORAD_CAT_ID":63809,"ELEMENT_SET_NO":999,"REV_AT_EPOCH":1952,"BSTAR":0.00047459874,"MEAN_MOTION_DOT":0.00012828,"MEAN_MOTION_DDOT":0}]
